TWILIGHT F              
1 67368U 26004F   26025.60872658  .00006095  00000+0  68252-3 0  9994
2 67368  97.8024  26.5301 0006772 235.1318 124.9262 14.87214352  2098
TWILIGHT G              
1 67369U 26004G   26025.60806437  .00004468  00000+0  50183-3 0  9993
2 67369  97.7954  26.5285 0005848 250.5164 109.5421 14.87236661  2097
TWILIGHT H              
1 67370U 26004H   26025.60763256  .00008220  00000+0  91623-3 0  9990
2 67370  97.7953  26.5285 0005519 251.3786 108.6832 14.87299294  2099
TWILIGHT J              
1 67371U 26004J   26025.60456034  .00010993  00000+0  12117-2 0  9994
2 67371  97.7994  26.5341 0004640 233.3418 126.7372 14.87675891  2095
TWILIGHT K              
1 67372U 26004K   26025.60148992  .00004392  00000+0  48511-3 0  9990
2 67372  97.7971  26.5363 0003021 226.4553 133.6413 14.87936720  2094
TWILIGHT L              
1 67373U 26004L   26025.60517606  .00004471  00000+0  49841-3 0  9998
2 67373  97.7985  26.5328 0004617 238.9863 121.0900 14.87542468  2099
TWILIGHT M              
1 67374U 26004M   26025.60218367  .00004888  00000+0  53976-3 0  9997
2 67374  97.7970  26.5342 0003278 227.4841 132.6099 14.87886522  2090
TWILIGHT N              
1 67375U 26004N   26025.60193163  .00004778  00000+0  52747-3 0  9997
2 67375  97.8007  26.5393 0003854 221.1862 138.9064 14.87911579  2095
TWILIGHT P              
1 67376U 26004P   26025.60329359  .00005220  00000+0  57779-3 0  9999
2 67376  97.8004  26.5367 0004205 228.0259 132.0600 14.87764233  2095
TWILIGHT Q              
1 67377U 26004Q   26025.60183532 -.00105351  00000+0 -11724-1 0  9997
2 67377  97.8006  26.5392 0003297 210.0069 150.0959 14.87753651  2084
TWILIGHT R              
1 67378U 26004R   26025.60399509  .00005510  00000+0  61060-3 0  9995
2 67378  97.7978  26.5328 0003641 239.1412 120.9447 14.87687316  2080
TWILIGHT S              
1 67379U 26004S   26025.60387972  .00005456  00000+0  60460-3 0  9999
2 67379  97.7982  26.5343 0004148 234.5134 125.5696 14.87698337  2088
