CCSDS_OMM_VERS = 2.0
CREATION_DATE  = 
ORIGINATOR     = 

OBJECT_NAME    = TWILIGHT F
OBJECT_ID      = 2026-004F
CENTER_NAME    = EARTH
REF_FRAME      = TEME
TIME_SYSTEM    = UTC
MEAN_ELEMENT_THEORY = SGP/SGP4

EPOCH          = 2026-01-25T14:36:33.976512
MEAN_MOTION    = 14.87214352
ECCENTRICITY   = .00067725
INCLINATION    = 97.8024
RA_OF_ASC_NODE = 26.5301
ARG_OF_PERICENTER = 235.1318
MEAN_ANOMALY   = 124.9262

EPHEMERIS_TYPE = 0
CLASSIFICATION_TYPE = U
NORAD_CAT_ID   = 67368
ELEMENT_SET_NO = 999
REV_AT_EPOCH   = 209
BSTAR          = .68251836E-3
MEAN_MOTION_DOT = .6095E-4
MEAN_MOTION_DDOT = 0

CCSDS_OMM_VERS = 2.0
CREATION_DATE  = 
ORIGINATOR     = 

OBJECT_NAME    = TWILIGHT G
OBJECT_ID      = 2026-004G
CENTER_NAME    = EARTH
REF_FRAME      = TEME
TIME_SYSTEM    = UTC
MEAN_ELEMENT_THEORY = SGP/SGP4

EPOCH          = 2026-01-25T14:35:36.761568
MEAN_MOTION    = 14.87236661
ECCENTRICITY   = .00058483
INCLINATION    = 97.7954
RA_OF_ASC_NODE = 26.5285
ARG_OF_PERICENTER = 250.5164
MEAN_ANOMALY   = 109.5421

EPHEMERIS_TYPE = 0
CLASSIFICATION_TYPE = U
NORAD_CAT_ID   = 67369
ELEMENT_SET_NO = 999
REV_AT_EPOCH   = 209
BSTAR          = .50182665E-3
MEAN_MOTION_DOT = .4468E-4
MEAN_MOTION_DDOT = 0

CCSDS_OMM_VERS = 2.0
CREATION_DATE  = 
ORIGINATOR     = 

OBJECT_NAME    = TWILIGHT H
OBJECT_ID      = 2026-004H
CENTER_NAME    = EARTH
REF_FRAME      = TEME
TIME_SYSTEM    = UTC
MEAN_ELEMENT_THEORY = SGP/SGP4

EPOCH          = 2026-01-25T14:34:59.453184
MEAN_MOTION    = 14.87299294
ECCENTRICITY   = .00055197
INCLINATION    = 97.7953
RA_OF_ASC_NODE = 26.5285
ARG_OF_PERICENTER = 251.3786
MEAN_ANOMALY   = 108.6832

EPHEMERIS_TYPE = 0
CLASSIFICATION_TYPE = U
NORAD_CAT_ID   = 67370
ELEMENT_SET_NO = 999
REV_AT_EPOCH   = 209
BSTAR          = .9162254E-3
MEAN_MOTION_DOT = .822E-4
MEAN_MOTION_DDOT = 0

CCSDS_OMM_VERS = 2.0
CREATION_DATE  = 
ORIGINATOR     = 

OBJECT_NAME    = TWILIGHT J
OBJECT_ID      = 2026-004J
CENTER_NAME    = EARTH
REF_FRAME      = TEME
TIME_SYSTEM    = UTC
MEAN_ELEMENT_THEORY = SGP/SGP4

EPOCH          = 2026-01-25T14:30:34.013376
MEAN_MOTION    = 14.87675891
ECCENTRICITY   = .00046402
INCLINATION    = 97.7994
RA_OF_ASC_NODE = 26.5341
ARG_OF_PERICENTER = 233.3418
MEAN_ANOMALY   = 126.7372

EPHEMERIS_TYPE = 0
CLASSIFICATION_TYPE = U
NORAD_CAT_ID   = 67371
ELEMENT_SET_NO = 999
REV_AT_EPOCH   = 209
BSTAR          = .12116859E-2
MEAN_MOTION_DOT = .10993E-3
MEAN_MOTION_DDOT = 0

CCSDS_OMM_VERS = 2.0
CREATION_DATE  = 
ORIGINATOR     = 

OBJECT_NAME    = TWILIGHT K
OBJECT_ID      = 2026-004K
CENTER_NAME    = EARTH
REF_FRAME      = TEME
TIME_SYSTEM    = UTC
MEAN_ELEMENT_THEORY = SGP/SGP4

EPOCH          = 2026-01-25T14:26:08.729088
MEAN_MOTION    = 14.87936720
ECCENTRICITY   = .00030211
INCLINATION    = 97.7971
RA_OF_ASC_NODE = 26.5363
ARG_OF_PERICENTER = 226.4553
MEAN_ANOMALY   = 133.6413

EPHEMERIS_TYPE = 0
CLASSIFICATION_TYPE = U
NORAD_CAT_ID   = 67372
ELEMENT_SET_NO = 999
REV_AT_EPOCH   = 209
BSTAR          = .48511285E-3
MEAN_MOTION_DOT = .4392E-4
MEAN_MOTION_DDOT = 0

CCSDS_OMM_VERS = 2.0
CREATION_DATE  = 
ORIGINATOR     = 

OBJECT_NAME    = TWILIGHT L
OBJECT_ID      = 2026-004L
CENTER_NAME    = EARTH
REF_FRAME      = TEME
TIME_SYSTEM    = UTC
MEAN_ELEMENT_THEORY = SGP/SGP4

EPOCH          = 2026-01-25T14:31:27.211584
MEAN_MOTION    = 14.87542468
ECCENTRICITY   = .00046174
INCLINATION    = 97.7985
RA_OF_ASC_NODE = 26.5328
ARG_OF_PERICENTER = 238.9863
MEAN_ANOMALY   = 121.0900

EPHEMERIS_TYPE = 0
CLASSIFICATION_TYPE = U
NORAD_CAT_ID   = 67373
ELEMENT_SET_NO = 999
REV_AT_EPOCH   = 209
BSTAR          = .49841021E-3
MEAN_MOTION_DOT = .4471E-4
MEAN_MOTION_DDOT = 0

CCSDS_OMM_VERS = 2.0
CREATION_DATE  = 
ORIGINATOR     = 

OBJECT_NAME    = TWILIGHT M
OBJECT_ID      = 2026-004M
CENTER_NAME    = EARTH
REF_FRAME      = TEME
TIME_SYSTEM    = UTC
MEAN_ELEMENT_THEORY = SGP/SGP4

EPOCH          = 2026-01-25T14:27:08.669088
MEAN_MOTION    = 14.87886522
ECCENTRICITY   = .00032789
INCLINATION    = 97.7970
RA_OF_ASC_NODE = 26.5342
ARG_OF_PERICENTER = 227.4841
MEAN_ANOMALY   = 132.6099

EPHEMERIS_TYPE = 0
CLASSIFICATION_TYPE = U
NORAD_CAT_ID   = 67374
ELEMENT_SET_NO = 999
REV_AT_EPOCH   = 209
BSTAR          = .53975902E-3
MEAN_MOTION_DOT = .4888E-4
MEAN_MOTION_DDOT = 0

CCSDS_OMM_VERS = 2.0
CREATION_DATE  = 
ORIGINATOR     = 

OBJECT_NAME    = TWILIGHT N
OBJECT_ID      = 2026-004N
CENTER_NAME    = EARTH
REF_FRAME      = TEME
TIME_SYSTEM    = UTC
MEAN_ELEMENT_THEORY = SGP/SGP4

EPOCH          = 2026-01-25T14:26:46.892832
MEAN_MOTION    = 14.87911579
ECCENTRICITY   = .00038546
INCLINATION    = 97.8007
RA_OF_ASC_NODE = 26.5393
ARG_OF_PERICENTER = 221.1862
MEAN_ANOMALY   = 138.9064

EPHEMERIS_TYPE = 0
CLASSIFICATION_TYPE = U
NORAD_CAT_ID   = 67375
ELEMENT_SET_NO = 999
REV_AT_EPOCH   = 209
BSTAR          = .52746859E-3
MEAN_MOTION_DOT = .4778E-4
MEAN_MOTION_DDOT = 0

CCSDS_OMM_VERS = 2.0
CREATION_DATE  = 
ORIGINATOR     = 

OBJECT_NAME    = TWILIGHT P
OBJECT_ID      = 2026-004P
CENTER_NAME    = EARTH
REF_FRAME      = TEME
TIME_SYSTEM    = UTC
MEAN_ELEMENT_THEORY = SGP/SGP4

EPOCH          = 2026-01-25T14:28:44.566176
MEAN_MOTION    = 14.87764233
ECCENTRICITY   = .00042051
INCLINATION    = 97.8004
RA_OF_ASC_NODE = 26.5367
ARG_OF_PERICENTER = 228.0259
MEAN_ANOMALY   = 132.0600

EPHEMERIS_TYPE = 0
CLASSIFICATION_TYPE = U
NORAD_CAT_ID   = 67376
ELEMENT_SET_NO = 999
REV_AT_EPOCH   = 209
BSTAR          = .57778929E-3
MEAN_MOTION_DOT = .522E-4
MEAN_MOTION_DDOT = 0

CCSDS_OMM_VERS = 2.0
CREATION_DATE  = 
ORIGINATOR     = 

OBJECT_NAME    = TWILIGHT Q
OBJECT_ID      = 2026-004Q
CENTER_NAME    = EARTH
REF_FRAME      = TEME
TIME_SYSTEM    = UTC
MEAN_ELEMENT_THEORY = SGP/SGP4

EPOCH          = 2026-01-25T14:26:38.571648
MEAN_MOTION    = 14.87753651
ECCENTRICITY   = .0003297
INCLINATION    = 97.8006
RA_OF_ASC_NODE = 26.5392
ARG_OF_PERICENTER = 210.0069
MEAN_ANOMALY   = 150.0959

EPHEMERIS_TYPE = 0
CLASSIFICATION_TYPE = U
NORAD_CAT_ID   = 67377
ELEMENT_SET_NO = 999
REV_AT_EPOCH   = 208
BSTAR          = -.11724437E-1
MEAN_MOTION_DOT = -.105351E-2
MEAN_MOTION_DDOT = 0

CCSDS_OMM_VERS = 2.0
CREATION_DATE  = 
ORIGINATOR     = 

OBJECT_NAME    = TWILIGHT R
OBJECT_ID      = 2026-004R
CENTER_NAME    = EARTH
REF_FRAME      = TEME
TIME_SYSTEM    = UTC
MEAN_ELEMENT_THEORY = SGP/SGP4

EPOCH          = 2026-01-25T14:29:45.175776
MEAN_MOTION    = 14.87687316
ECCENTRICITY   = .0003641
INCLINATION    = 97.7978
RA_OF_ASC_NODE = 26.5328
ARG_OF_PERICENTER = 239.1412
MEAN_ANOMALY   = 120.9447

EPHEMERIS_TYPE = 0
CLASSIFICATION_TYPE = U
NORAD_CAT_ID   = 67378
ELEMENT_SET_NO = 999
REV_AT_EPOCH   = 208
BSTAR          = .61059707E-3
MEAN_MOTION_DOT = .551E-4
MEAN_MOTION_DDOT = 0

CCSDS_OMM_VERS = 2.0
CREATION_DATE  = 
ORIGINATOR     = 

OBJECT_NAME    = TWILIGHT S
OBJECT_ID      = 2026-004S
CENTER_NAME    = EARTH
REF_FRAME      = TEME
TIME_SYSTEM    = UTC
MEAN_ELEMENT_THEORY = SGP/SGP4

EPOCH          = 2026-01-25T14:29:35.207808
MEAN_MOTION    = 14.87698337
ECCENTRICITY   = .00041484
INCLINATION    = 97.7982
RA_OF_ASC_NODE = 26.5343
ARG_OF_PERICENTER = 234.5134
MEAN_ANOMALY   = 125.5696

EPHEMERIS_TYPE = 0
CLASSIFICATION_TYPE = U
NORAD_CAT_ID   = 67379
ELEMENT_SET_NO = 999
REV_AT_EPOCH   = 208
BSTAR          = .60460149E-3
MEAN_MOTION_DOT = .5456E-4
MEAN_MOTION_DDOT = 0

